DONGPO 02               
1 53452U 22098J   26162.90144292  .00104426  00000+0  74197-3 0  9995
2 53452  97.5510 293.6368 0001689 288.8148  71.2933 15.73578594213968
DONGPO 01               
1 53453U 22098K   26162.94857294  .00090797  00000+0  70481-3 0  9990
2 53453  97.5570 294.2273 0001466 239.3246 120.7872 15.71524269213937
STARLINK-4400           
1 53468U 22099D   26162.92819916 -.00002596  00000+0 -17592-3 0  9990
2 53468  97.3719 282.1947 0001321 132.7913 227.3426 15.05665302210158
STARLINK-4621           
1 53676U 22105AE  26162.66513541  .00000704  00000+0  52807-4 0  9991
2 53676  97.3743  41.9570 0002415  85.2142 274.9362 15.05649809207371
SHERPA-LTC2             
1 53754U 22107BG  26162.54197662  .00006581  00000+0  33449-3 0  9998
2 53754  53.2356 244.2272 0394453 210.2113 147.5582 14.69647223201718
CENTISPACE-1 S3         
1 53757U 22108A   26162.94084606  .00000379  00000+0  11432-3 0  9996
2 53757  53.5332  76.9528 0009034 340.4560  19.6068 14.61245916200769
CENTISPACE-1 S4         
1 53758U 22108B   26162.92757760  .00000540  00000+0  14482-3 0  9991
2 53758  53.5307  74.5505 0008267 327.9775  32.0697 14.61925185200799
BLUEWALKER-3            
1 53807U 22111AL  26162.91695990  .00006516  00000+0  18074-3 0  9995
2 53807  53.2297  58.7124 0006708 145.9149 214.2288 15.38206410209394
YUNHAI-1 03             
1 53877U 22115A   26162.94964377  .00000279  00000+0  11850-3 0  9992
2 53877  98.5531 161.1632 0005938  68.0932 292.0883 14.32714507194769
CENTISPACE-1 S5         
1 54020U 22126A   26162.82278577  .00000537  00000+0  14060-3 0  9995
2 54020  54.9982 234.4272 0014435  62.5302 297.7158 14.63006772196257
CENTISPACE-1 S6         
1 54021U 22126B   26162.81330605  .00000376  00000+0  11100-3 0  9999
2 54021  54.9985 236.3055 0016286  62.3939 297.8707 14.62285423196219
OTB-3-GAZELLE           
1 54023U 22127A   26162.92743695  .00000125  00000+0  50529-4 0  9992
2 54023  98.3942 154.7119 0012612 199.3329 160.7384 14.42672568193600
ASO-S                   
1 54029U 22129A   26162.94788560  .00000186  00000+0  56919-4 0  9998
2 54029  98.2747 168.1034 0015691 107.3517 252.9397 14.52059248194661
HJ-2E                   
1 54035U 22132A   26162.96059756  .00007820  00000+0  34099-3 0  9995
2 54035  97.3795 167.4311 0021194  32.9679 327.2874 15.22236807203627
COSMOS 2561             
1 54109U 22137A   26162.87381980  .00012615  00000+0  21387-3 0  9993
2 54109  96.9188 222.0737 0011254  53.5931 306.6359 15.51567727205526
GONETS-M 23             
1 54150U 22139A   26162.94996935  .00000043  00000+0  23857-3 0  9997
2 54150  82.5072 351.5498 0020725 231.5944 128.3275 12.42890598164995
GONETS-M 24             
1 54151U 22139B   26162.92306744  .00000052  00000+0  30531-3 0  9996
2 54151  82.4983 350.6299 0015870 242.2031 117.7440 12.42891272164992
GONETS-M 25             
1 54152U 22139C   26162.98994301  .00000032  00000+0  16023-3 0  9993
2 54152  82.5054 351.2718 0019790 240.7071 119.2031 12.42889845165007
SKIF-D                  
1 54153U 22139D   26162.26096539  .00000005  00000+0  00000+0 0  9995
2 54153  89.9516  96.6694 0007379 201.8041 158.2077  5.00429076 63811
MATS                    
1 54227U 22147A   26162.93061269  .00002787  00000+0  19883-3 0  9994
2 54227  97.6824 164.5503 0011436 209.5236 150.5345 15.05325991196979
JILIN-1 GAOFEN 03D54    
1 54254U 22155D   26162.69798123  .00292499  35590-4  75912-3 0  9995
2 54254  97.6099 315.0883 0004382 265.6475  94.4300 15.95038453199420
EOS-6 (OCEANSAT-3)      
1 54361U 22158A   26162.97654579  .00000217  00000+0  71670-4 0  9990
2 54361  98.3539 261.2398 0001479  54.0638 306.0691 14.46997321187081
DONGPO 09               
1 54685U 22167D   26162.93873076  .00011098  00000+0  31671-3 0  9995
2 54685  97.6890 333.7124 0003425 127.7143 232.4411 15.36217837194645
DONGPO 08               
1 54686U 22167E   26162.97527582  .00009796  00000+0  30436-3 0  9998
2 54686  97.6854 330.9531 0008260 177.7333 182.3948 15.33541365194523
2022-167F               
1 54687U 22167F   26162.48806405  .00187484  14998-4  62506-3 0  9999
2 54687  97.6103 349.7100 0001090 192.1552 167.9694 15.90246470195923
DONGPO 10               
1 54689U 22167H   26162.98466362  .00009944  00000+0  30132-3 0  9998
2 54689  97.6935 332.9023 0006158 124.6598 235.5225 15.34347408194568
JILIN-1 GAOFEN 03D48    
1 54695U 22167P   26162.98496032  .00010306  00000+0  30466-3 0  9996
2 54695  97.6870 332.2788 0007462 130.2608 229.9288 15.35109197194599
STAR VIBE               
1 55009U 23001A   26162.91586499  .00013837  00000+0  32113-3 0  9997
2 55009  97.3179 227.3586 0007050 127.3291 232.8600 15.42470941191411
BRO-8                   
1 55011U 23001C   26162.94440168  .00029689  00000+0  55383-3 0  9991
2 55011  97.3224 228.0535 0006861 137.7626 222.4155 15.48730323191399
CONNECTA T1.2           
1 55012U 23001D   26162.81432620  .00037873  00000+0  66755-3 0  9991
2 55012  97.3283 233.4104 0006786 118.2736 241.9201 15.50301284191716
