OBJECT_NAME,OBJECT_ID,EPOCH,MEAN_MOTION,ECCENTRICITY,INCLINATION,RA_OF_ASC_NODE,ARG_OF_PERICENTER,MEAN_ANOMALY,EPHEMERIS_TYPE,CLASSIFICATION_TYPE,NORAD_CAT_ID,ELEMENT_SET_NO,REV_AT_EPOCH,BSTAR,MEAN_MOTION_DOT,MEAN_MOTION_DDOT
DONGPO 02,2022-098J,2026-06-11T21:38:04.668288,15.73578594,.00016895,97.5510,293.6368,288.8148,71.2933,0,U,53452,999,21396,.74197224E-3,.104426E-2,0
DONGPO 01,2022-098K,2026-06-11T22:45:56.702016,15.71524269,.00014664,97.5570,294.2273,239.3246,120.7872,0,U,53453,999,21393,.70481427E-3,.90797E-3,0
STARLINK-4400,2022-099D,2026-06-11T22:16:36.407424,15.05665302,.0001321,97.3719,282.1947,132.7913,227.3426,0,U,53468,999,21015,-.17592119E-3,-.2596E-4,0
STARLINK-4621,2022-105AE,2026-06-11T15:57:47.699424,15.05649809,.00024156,97.3743,41.9570,85.2142,274.9362,0,U,53676,999,20737,.52806966E-4,.704E-5,0
SHERPA-LTC2,2022-107BG,2026-06-11T13:00:26.779968,14.69647223,.0394453,53.2356,244.2272,210.2113,147.5582,0,U,53754,999,20171,.33449E-3,.6581E-4,0
CENTISPACE-1 S3,2022-108A,2026-06-11T22:34:49.099584,14.61245916,.00090343,53.5332,76.9528,340.4560,19.6068,0,U,53757,999,20076,.11432058E-3,.379E-5,0
CENTISPACE-1 S4,2022-108B,2026-06-11T22:15:42.704640,14.61925185,.00082676,53.5307,74.5505,327.9775,32.0697,0,U,53758,999,20079,.14482384E-3,.54E-5,0
BLUEWALKER-3,2022-111AL,2026-06-11T22:00:25.335360,15.38206410,.00067087,53.2297,58.7124,145.9149,214.2288,0,U,53807,999,20939,.1807446E-3,.6516E-4,0
YUNHAI-1 03,2022-115A,2026-06-11T22:47:29.221728,14.32714507,.00059388,98.5531,161.1632,68.0932,292.0883,0,U,53877,999,19476,.11850101E-3,.279E-5,0
CENTISPACE-1 S5,2022-126A,2026-06-11T19:44:48.690528,14.63006772,.0014435,54.9982,234.4272,62.5302,297.7158,0,U,54020,999,19625,.14059765E-3,.537E-5,0
CENTISPACE-1 S6,2022-126B,2026-06-11T19:31:09.642720,14.62285423,.00162864,54.9985,236.3055,62.3939,297.8707,0,U,54021,999,19621,.11100088E-3,.376E-5,0
OTB-3-GAZELLE,2022-127A,2026-06-11T22:15:30.552480,14.42672568,.00126125,98.3942,154.7119,199.3329,160.7384,0,U,54023,999,19360,.50528959E-4,.125E-5,0
ASO-S,2022-129A,2026-06-11T22:44:57.315840,14.52059248,.00156918,98.2747,168.1034,107.3517,252.9397,0,U,54029,999,19466,.56918691E-4,.186E-5,0
HJ-2E,2022-132A,2026-06-11T23:03:15.629184,15.22236807,.00211947,97.3795,167.4311,32.9679,327.2874,0,U,54035,999,20362,.34098959E-3,.782E-4,0
COSMOS 2561,2022-137A,2026-06-11T20:58:18.030720,15.51567727,.0011254,96.9188,222.0737,53.5931,306.6359,0,U,54109,999,20552,.21387E-3,.12615E-3,0
GONETS-M 23,2022-139A,2026-06-11T22:47:57.351840,12.42890598,.00207251,82.5072,351.5498,231.5944,128.3275,0,U,54150,999,16499,.23857158E-3,.43E-6,0
GONETS-M 24,2022-139B,2026-06-11T22:09:13.026816,12.42891272,.001587,82.4983,350.6299,242.2031,117.7440,0,U,54151,999,16499,.30531385E-3,.52E-6,0
GONETS-M 25,2022-139C,2026-06-11T23:45:31.076064,12.42889845,.00197902,82.5054,351.2718,240.7071,119.2031,0,U,54152,999,16500,.16023411E-3,.32E-6,0
SKIF-D,2022-139D,2026-06-11T06:15:47.409696,5.00429076,.0007379,89.9516,96.6694,201.8041,158.2077,0,U,54153,999,6381,0,.5E-7,0
MATS,2022-147A,2026-06-11T22:20:04.936416,15.05325991,.00114365,97.6824,164.5503,209.5236,150.5345,0,U,54227,999,19697,.19883416E-3,.2787E-4,0
JILIN-1 GAOFEN 03D54,2022-155D,2026-06-11T16:45:05.578272,15.95038453,.00043824,97.6099,315.0883,265.6475,94.4300,0,U,54254,999,19942,.75912185E-3,.292499E-2,.35589927E-4
EOS-6 (OCEANSAT-3),2022-158A,2026-06-11T23:26:13.556256,14.46997321,.00014797,98.3539,261.2398,54.0638,306.0691,0,U,54361,999,18708,.71670219E-4,.217E-5,0
DONGPO 09,2022-167D,2026-06-11T22:31:46.337664,15.36217837,.00034258,97.6890,333.7124,127.7143,232.4411,0,U,54685,999,19464,.31671107E-3,.11098E-3,0
DONGPO 08,2022-167E,2026-06-11T23:24:23.830848,15.33541365,.000826,97.6854,330.9531,177.7333,182.3948,0,U,54686,999,19452,.30435639E-3,.9796E-4,0
2022-167F,2022-167F,2026-06-11T11:42:48.733920,15.90246470,.000109,97.6103,349.7100,192.1552,167.9694,0,U,54687,999,19592,.62506E-3,.187484E-2,.14998E-4
DONGPO 10,2022-167H,2026-06-11T23:37:54.936768,15.34347408,.00061589,97.6935,332.9023,124.6598,235.5225,0,U,54689,999,19456,.30131513E-3,.9944E-4,0
JILIN-1 GAOFEN 03D48,2022-167P,2026-06-11T23:38:20.571648,15.35109197,.00074628,97.6870,332.2788,130.2608,229.9288,0,U,54695,999,19459,.30465708E-3,.10306E-3,0
STAR VIBE,2023-001A,2026-06-11T21:58:50.735136,15.42470941,.00070508,97.3179,227.3586,127.3291,232.8600,0,U,55009,999,19141,.32112678E-3,.13837E-3,0
BRO-8,2023-001C,2026-06-11T22:39:56.305152,15.48730323,.00068613,97.3224,228.0535,137.7626,222.4155,0,U,55011,999,19139,.5538302E-3,.29689E-3,0
CONNECTA T1.2,2023-001D,2026-06-11T19:32:37.783680,15.50301284,.0006786,97.3283,233.4104,118.2736,241.9201,0,U,55012,999,19171,.66754725E-3,.37873E-3,0
